GLOBAL-4                
1 44499U 19054E   26068.36809421  .00042886  00000+0  61659-3 0  9991
2 44499  45.0070  88.4746 0005592   7.6875 352.4104 15.55419748364774
STARLINK-1309           
1 45414U 20019BG  26068.43511861  .00103315  00000+0  15125-2 0  9999
2 45414  53.0666 124.8394 0005615  27.8152 332.3157 15.54780234329994
